[
    {
        "Altitude(m)": 579892.0595276961,
        "Argument of Periapsis(deg)": -0.007534386927657468,
        "Eccentricity": 0.0,
        "Inclination(deg)": 97.0,
        "Latitude(deg)": -42.785272436147224,
        "Longitude(deg)": -167.25072636005243,
        "Mean Anomaly(deg)": 222.91854775639587,
        "RAAN(deg)": 120.00198235120617,
        "Satellite Name": "Starlink Shell 3 1850",
        "Satellite Number": 1850,
        "Semi-Major Axis(m)": 6938478.169268562,
        "Time(s)": 190
    },
    {
        "Altitude(m)": 580146.1360399297,
        "Argument of Periapsis(deg)": -0.007930933608060494,
        "Eccentricity": 0.0,
        "Inclination(deg)": 97.0,
        "Latitude(deg)": -43.40098551206462,
        "Longitude(deg)": -167.43433787479975,
        "Mean Anomaly(deg)": 223.54402395410088,
        "RAAN(deg)": 120.00208668548017,
        "Satellite Name": "Starlink Shell 3 1850",
        "Satellite Number": 1850,
        "Semi-Major Axis(m)": 6938478.169268562,
        "Time(s)": 200
    },
    {
        "Altitude(m)": 580399.7797392977,
        "Argument of Periapsis(deg)": -0.008327480288463517,
        "Eccentricity": 0.0,
        "Inclination(deg)": 97.0,
        "Latitude(deg)": -44.016424809224866,
        "Longitude(deg)": -167.62084088706442,
        "Mean Anomaly(deg)": 224.16950015180592,
        "RAAN(deg)": 120.00219101975418,
        "Satellite Name": "Starlink Shell 3 1850",
        "Satellite Number": 1850,
        "Semi-Major Axis(m)": 6938478.169268562,
        "Time(s)": 210
    },
    {
        "Altitude(m)": 580652.8909730415,
        "Argument of Periapsis(deg)": -0.008724026968866542,
        "Eccentricity": 0.0,
        "Inclination(deg)": 97.0,
        "Latitude(deg)": -44.631582800432454,
        "Longitude(deg)": -167.81035840821565,
        "Mean Anomaly(deg)": 224.79497634951096,
        "RAAN(deg)": 120.00229535402818,
        "Satellite Name": "Starlink Shell 3 1850",
        "Satellite Number": 1850,
        "Semi-Major Axis(m)": 6938478.169268562,
        "Time(s)": 220
    },
    {
        "Altitude(m)": 580905.3701646428,
        "Argument of Periapsis(deg)": -0.009120573649269567,
        "Eccentricity": 0.0,
        "Inclination(deg)": 97.0,
        "Latitude(deg)": -45.246451595341014,
        "Longitude(deg)": -168.00301991856955,
        "Mean Anomaly(deg)": 225.42045254721597,
        "RAAN(deg)": 120.0023996883022,
        "Satellite Name": "Starlink Shell 3 1850",
        "Satellite Number": 1850,
        "Semi-Major Axis(m)": 6938478.169268562,
        "Time(s)": 230
    },
    {
        "Altitude(m)": 581157.1178585123,
        "Argument of Periapsis(deg)": -0.009517120329672592,
        "Eccentricity": 0.0,
        "Inclination(deg)": 97.0,
        "Latitude(deg)": -45.86102291246506,
        "Longitude(deg)": -168.19896130346865,
        "Mean Anomaly(deg)": 226.0459287449211,
        "RAAN(deg)": 120.0025040225762,
        "Satellite Name": "Starlink Shell 3 1850",
        "Satellite Number": 1850,
        "Semi-Major Axis(m)": 6938478.169268562,
        "Time(s)": 240
    },
    {
        "Altitude(m)": 581408.0347645486,
        "Argument of Periapsis(deg)": -0.009913667010075618,
        "Eccentricity": 0.0,
        "Inclination(deg)": 97.0,
        "Latitude(deg)": -46.4752880488639,
        "Longitude(deg)": -168.39832633802206,
        "Mean Anomaly(deg)": 226.6714049426261,
        "RAAN(deg)": 120.00260835685022,
        "Satellite Name": "Starlink Shell 3 1850",
        "Satellite Number": 1850,
        "Semi-Major Axis(m)": 6938478.169268562,
        "Time(s)": 250
    },
    {
        "Altitude(m)": 581658.021802594,
        "Argument of Periapsis(deg)": -0.010310213690478642,
        "Eccentricity": 0.0,
        "Inclination(deg)": 97.0,
        "Latitude(deg)": -47.08923784727927,
        "Longitude(deg)": -168.60126669817313,
        "Mean Anomaly(deg)": 227.29688114033115,
        "RAAN(deg)": 120.00271269112422,
        "Satellite Name": "Starlink Shell 3 1850",
        "Satellite Number": 1850,
        "Semi-Major Axis(m)": 6938478.169268562,
        "Time(s)": 260
    },
    {
        "Altitude(m)": 581906.9801467239,
        "Argument of Periapsis(deg)": -0.010706760370881667,
        "Eccentricity": 0.0,
        "Inclination(deg)": 97.0,
        "Latitude(deg)": -47.702862660474295,
        "Longitude(deg)": -168.80794201475533,
        "Mean Anomaly(deg)": 227.9223573380362,
        "RAAN(deg)": 120.00281702539824,
        "Satellite Name": "Starlink Shell 3 1850",
        "Satellite Number": 1850,
        "Semi-Major Axis(m)": 6938478.169268562,
        "Time(s)": 270
    },
    {
        "Altitude(m)": 582154.8112693903,
        "Argument of Periapsis(deg)": -0.011103307051284692,
        "Eccentricity": 0.0,
        "Inclination(deg)": 97.0,
        "Latitude(deg)": -48.31615231249388,
        "Longitude(deg)": -169.01852148761432,
        "Mean Anomaly(deg)": 228.5478335357412,
        "RAAN(deg)": 120.00292135967224,
        "Satellite Name": "Starlink Shell 3 1850",
        "Satellite Number": 1850,
        "Semi-Major Axis(m)": 6938478.169268562,
        "Time(s)": 280
    },
    {
        "Altitude(m)": 582401.4169853608,
        "Argument of Periapsis(deg)": -0.011499853731687715,
        "Eccentricity": 0.0,
        "Inclination(deg)": 97.0,
        "Latitude(deg)": -48.9290960565428,
        "Longitude(deg)": -169.23318403872443,
        "Mean Anomaly(deg)": 229.1733097334463,
        "RAAN(deg)": 120.00302569394627,
        "Satellite Name": "Starlink Shell 3 1850",
        "Satellite Number": 1850,
        "Semi-Major Axis(m)": 6938478.169268562,
        "Time(s)": 290
    },
    {
        "Altitude(m)": 582646.6994954534,
        "Argument of Periapsis(deg)": -0.011896400412090741,
        "Eccentricity": 0.0,
        "Inclination(deg)": 97.0,
        "Latitude(deg)": -49.54168252913241,
        "Longitude(deg)": -169.45211852237813,
        "Mean Anomaly(deg)": 229.7987859311513,
        "RAAN(deg)": 120.00313002822024,
        "Satellite Name": "Starlink Shell 3 1850",
        "Satellite Number": 1850,
        "Semi-Major Axis(m)": 6938478.169268562,
        "Time(s)": 300
    },
    {
        "Altitude(m)": 582890.5614300658,
        "Argument of Periapsis(deg)": -0.012292947092493765,
        "Eccentricity": 0.0,
        "Inclination(deg)": 97.0,
        "Latitude(deg)": -50.153899700108845,
        "Longitude(deg)": -169.67552551112243,
        "Mean Anomaly(deg)": 230.42426212885636,
        "RAAN(deg)": 120.00323436249427,
        "Satellite Name": "Starlink Shell 3 1850",
        "Satellite Number": 1850,
        "Semi-Major Axis(m)": 6938478.169268562,
        "Time(s)": 310
    },
    {
        "Altitude(m)": 583132.9058924431,
        "Argument of Periapsis(deg)": -0.012689493772896788,
        "Eccentricity": 0.0,
        "Inclination(deg)": 97.0,
        "Latitude(deg)": -50.765734818134476,
        "Longitude(deg)": -169.90361763817276,
        "Mean Anomaly(deg)": 231.0497383265614,
        "RAAN(deg)": 120.00333869676827,
        "Satellite Name": "Starlink Shell 3 1850",
        "Satellite Number": 1850,
        "Semi-Major Axis(m)": 6938478.169268562,
        "Time(s)": 320
    },
    {
        "Altitude(m)": 583373.6365016755,
        "Argument of Periapsis(deg)": -0.013086040453299813,
        "Eccentricity": 0.0,
        "Inclination(deg)": 97.0,
        "Latitude(deg)": -51.37717435113561,
        "Longitude(deg)": -170.13662001641302,
        "Mean Anomaly(deg)": 231.67521452426644,
        "RAAN(deg)": 120.00344303104228,
        "Satellite Name": "Starlink Shell 3 1850",
        "Satellite Number": 1850,
        "Semi-Major Axis(m)": 6938478.169268562,
        "Time(s)": 330
    },
    {
        "Altitude(m)": 583612.6574354427,
        "Argument of Periapsis(deg)": -0.01348258713370284,
        "Eccentricity": 0.0,
        "Inclination(deg)": 97.0,
        "Latitude(deg)": -51.9882039211702,
        "Longitude(deg)": -170.37477225495607,
        "Mean Anomaly(deg)": 232.30069072197148,
        "RAAN(deg)": 120.00354736531628,
        "Satellite Name": "Starlink Shell 3 1850",
        "Satellite Number": 1850,
        "Semi-Major Axis(m)": 6938478.169268562,
        "Time(s)": 340
    },
    {
        "Altitude(m)": 583849.8734724094,
        "Argument of Periapsis(deg)": -0.013879133814105863,
        "Eccentricity": 0.0,
        "Inclination(deg)": 97.0,
        "Latitude(deg)": -52.598808233108045,
        "Longitude(deg)": -170.618329056594,
        "Mean Anomaly(deg)": 232.92616691967652,
        "RAAN(deg)": 120.0036516995903,
        "Satellite Name": "Starlink Shell 3 1850",
        "Satellite Number": 1850,
        "Semi-Major Axis(m)": 6938478.169268562,
        "Time(s)": 350
    },
    {
        "Altitude(m)": 584085.1900343775,
        "Argument of Periapsis(deg)": -0.01427568049450889,
        "Eccentricity": 0.0,
        "Inclination(deg)": 97.0,
        "Latitude(deg)": -53.208970996432484,
        "Longitude(deg)": -170.86756091919952,
        "Mean Anomaly(deg)": 233.55164311738156,
        "RAAN(deg)": 120.0037560338643,
        "Satellite Name": "Starlink Shell 3 1850",
        "Satellite Number": 1850,
        "Semi-Major Axis(m)": 6938478.169268562,
        "Time(s)": 360
    },
    {
        "Altitude(m)": 584318.5132280061,
        "Argument of Periapsis(deg)": -0.014672227174911913,
        "Eccentricity": 0.0,
        "Inclination(deg)": 97.0,
        "Latitude(deg)": -53.81867483938051,
        "Longitude(deg)": -171.12275646539953,
        "Mean Anomaly(deg)": 234.17711931508663,
        "RAAN(deg)": 120.00386036813833,
        "Satellite Name": "Starlink Shell 3 1850",
        "Satellite Number": 1850,
        "Semi-Major Axis(m)": 6938478.169268562,
        "Time(s)": 370
    }
]